SL-4 R/B                
1 39679U 14021B   26052.39384425  .00014241  00000+0  32011-3 0  9996
2 39679  51.6065  56.7399 0098753  43.5635 317.3094 15.38587290653768
ALOS-2                  
1 39766U 14029A   26052.55464948  .00001538  00000+0  21284-3 0  9993
2 39766  97.9206 151.3847 0001584  99.0673 261.0718 14.79471179634487
YAOGAN-29               
1 41038U 15069A   26052.53357964  .00000203  00000+0  31641-4 0  9997
2 41038  98.0158  80.9182 0002712  62.2179 297.9308 14.82975320553480
ASTRO-H (HITOMI)        
1 41337U 16012A   26052.50435571  .00003152  00000+0  18409-3 0  9998
2 41337  30.9992 100.9840 0009875 170.2595 189.8236 15.09877821549780
HXMT (HUIYAN)           
1 42758U 17034A   26052.51821353  .00005117  00000+0  26124-3 0  9995
2 42758  43.0136 106.5641 0030845 133.9999 226.3398 15.17244212480083
CZ-2C R/B               
1 43521U 18054D   26052.40770730  .00846658  38826-3  86128-3 0  9991
2 43521  35.1258  52.9145 0011414 157.2614 202.8638 16.09713225426281
SAOCOM 1A               
1 43641U 18076A   26052.49047484  .00000864  00000+0  11515-3 0  9998
2 43641  97.8875 240.8917 0001336  80.7238 279.4126 14.82150828398961
H-2A R/B                
1 43682U 18084L   26052.49898770  .00020219  00000+0  49303-3 0  9996
2 43682  98.8745 266.4356 0026296  79.6869 280.7335 15.40588250403281
SAOCOM 1B               
1 46265U 20059A   26052.52172560  .00000045  00000+0  12155-4 0  9998
2 46265  97.8872 240.0205 0001439  84.4567 275.6810 14.82151223296353
CSS (TIANHE)            
1 48274U 21035A   26052.39364336  .00027817  00000+0  33751-3 0  9994
2 48274  41.4672 307.2629 0004925 163.0648 197.0356 15.59973204275064
COSMOS 2550             
1 48865U 21056A   26051.23732323 -.00000183  00000+0  27169-6 0  9997
2 48865  67.1417  93.7235 0008376 269.6268  90.3927 15.33829214260782
CZ-2C R/B               
1 52794U 22058K   26052.36840766  .00036665  00000+0  55951-3 0  9992
2 52794  50.1896  42.1658 0042125 131.4069 229.0534 15.53012849207598
