CCSDS_OMM_VERS = 2.0
CREATION_DATE  = 
ORIGINATOR     = 

OBJECT_NAME    = SL-4 R/B
OBJECT_ID      = 2014-021B
CENTER_NAME    = EARTH
REF_FRAME      = TEME
TIME_SYSTEM    = UTC
MEAN_ELEMENT_THEORY = SGP/SGP4

EPOCH          = 2026-02-21T09:27:08.143200
MEAN_MOTION    = 15.38587290
ECCENTRICITY   = .0098753
INCLINATION    = 51.6065
RA_OF_ASC_NODE = 56.7399
ARG_OF_PERICENTER = 43.5635
MEAN_ANOMALY   = 317.3094

EPHEMERIS_TYPE = 0
CLASSIFICATION_TYPE = U
NORAD_CAT_ID   = 39679
ELEMENT_SET_NO = 999
REV_AT_EPOCH   = 65376
BSTAR          = .32011E-3
MEAN_MOTION_DOT = .14241E-3
MEAN_MOTION_DDOT = 0

CCSDS_OMM_VERS = 2.0
CREATION_DATE  = 
ORIGINATOR     = 

OBJECT_NAME    = ALOS-2
OBJECT_ID      = 2014-029A
CENTER_NAME    = EARTH
REF_FRAME      = TEME
TIME_SYSTEM    = UTC
MEAN_ELEMENT_THEORY = SGP/SGP4

EPOCH          = 2026-02-21T13:18:41.715072
MEAN_MOTION    = 14.79471179
ECCENTRICITY   = .0001584
INCLINATION    = 97.9206
RA_OF_ASC_NODE = 151.3847
ARG_OF_PERICENTER = 99.0673
MEAN_ANOMALY   = 261.0718

EPHEMERIS_TYPE = 0
CLASSIFICATION_TYPE = U
NORAD_CAT_ID   = 39766
ELEMENT_SET_NO = 999
REV_AT_EPOCH   = 63448
BSTAR          = .21284E-3
MEAN_MOTION_DOT = .1538E-4
MEAN_MOTION_DDOT = 0

CCSDS_OMM_VERS = 2.0
CREATION_DATE  = 
ORIGINATOR     = 

OBJECT_NAME    = YAOGAN-29
OBJECT_ID      = 2015-069A
CENTER_NAME    = EARTH
REF_FRAME      = TEME
TIME_SYSTEM    = UTC
MEAN_ELEMENT_THEORY = SGP/SGP4

EPOCH          = 2026-02-21T12:48:21.280896
MEAN_MOTION    = 14.82975320
ECCENTRICITY   = .0002712
INCLINATION    = 98.0158
RA_OF_ASC_NODE = 80.9182
ARG_OF_PERICENTER = 62.2179
MEAN_ANOMALY   = 297.9308

EPHEMERIS_TYPE = 0
CLASSIFICATION_TYPE = U
NORAD_CAT_ID   = 41038
ELEMENT_SET_NO = 999
REV_AT_EPOCH   = 55348
BSTAR          = .31641E-4
MEAN_MOTION_DOT = .203E-5
MEAN_MOTION_DDOT = 0

CCSDS_OMM_VERS = 2.0
CREATION_DATE  = 
ORIGINATOR     = 

OBJECT_NAME    = ASTRO-H (HITOMI)
OBJECT_ID      = 2016-012A
CENTER_NAME    = EARTH
REF_FRAME      = TEME
TIME_SYSTEM    = UTC
MEAN_ELEMENT_THEORY = SGP/SGP4

EPOCH          = 2026-02-21T12:06:16.333344
MEAN_MOTION    = 15.09877821
ECCENTRICITY   = .0009875
INCLINATION    = 30.9992
RA_OF_ASC_NODE = 100.9840
ARG_OF_PERICENTER = 170.2595
MEAN_ANOMALY   = 189.8236

EPHEMERIS_TYPE = 0
CLASSIFICATION_TYPE = U
NORAD_CAT_ID   = 41337
ELEMENT_SET_NO = 999
REV_AT_EPOCH   = 54978
BSTAR          = .18409E-3
MEAN_MOTION_DOT = .3152E-4
MEAN_MOTION_DDOT = 0

CCSDS_OMM_VERS = 2.0
CREATION_DATE  = 
ORIGINATOR     = 

OBJECT_NAME    = HXMT (HUIYAN)
OBJECT_ID      = 2017-034A
CENTER_NAME    = EARTH
REF_FRAME      = TEME
TIME_SYSTEM    = UTC
MEAN_ELEMENT_THEORY = SGP/SGP4

EPOCH          = 2026-02-21T12:26:13.648992
MEAN_MOTION    = 15.17244212
ECCENTRICITY   = .0030845
INCLINATION    = 43.0136
RA_OF_ASC_NODE = 106.5641
ARG_OF_PERICENTER = 133.9999
MEAN_ANOMALY   = 226.3398

EPHEMERIS_TYPE = 0
CLASSIFICATION_TYPE = U
NORAD_CAT_ID   = 42758
ELEMENT_SET_NO = 999
REV_AT_EPOCH   = 48008
BSTAR          = .26124E-3
MEAN_MOTION_DOT = .5117E-4
MEAN_MOTION_DDOT = 0

CCSDS_OMM_VERS = 2.0
CREATION_DATE  = 
ORIGINATOR     = 

OBJECT_NAME    = CZ-2C R/B
OBJECT_ID      = 2018-054D
CENTER_NAME    = EARTH
REF_FRAME      = TEME
TIME_SYSTEM    = UTC
MEAN_ELEMENT_THEORY = SGP/SGP4

EPOCH          = 2026-02-21T09:47:05.910720
MEAN_MOTION    = 16.09713225
ECCENTRICITY   = .0011414
INCLINATION    = 35.1258
RA_OF_ASC_NODE = 52.9145
ARG_OF_PERICENTER = 157.2614
MEAN_ANOMALY   = 202.8638

EPHEMERIS_TYPE = 0
CLASSIFICATION_TYPE = U
NORAD_CAT_ID   = 43521
ELEMENT_SET_NO = 999
REV_AT_EPOCH   = 42628
BSTAR          = .86128E-3
MEAN_MOTION_DOT = .846658E-2
MEAN_MOTION_DDOT = .38826E-3

CCSDS_OMM_VERS = 2.0
CREATION_DATE  = 
ORIGINATOR     = 

OBJECT_NAME    = SAOCOM 1A
OBJECT_ID      = 2018-076A
CENTER_NAME    = EARTH
REF_FRAME      = TEME
TIME_SYSTEM    = UTC
MEAN_ELEMENT_THEORY = SGP/SGP4

EPOCH          = 2026-02-21T11:46:17.026176
MEAN_MOTION    = 14.82150828
ECCENTRICITY   = .0001336
INCLINATION    = 97.8875
RA_OF_ASC_NODE = 240.8917
ARG_OF_PERICENTER = 80.7238
MEAN_ANOMALY   = 279.4126

EPHEMERIS_TYPE = 0
CLASSIFICATION_TYPE = U
NORAD_CAT_ID   = 43641
ELEMENT_SET_NO = 999
REV_AT_EPOCH   = 39896
BSTAR          = .11515E-3
MEAN_MOTION_DOT = .864E-5
MEAN_MOTION_DDOT = 0

CCSDS_OMM_VERS = 2.0
CREATION_DATE  = 
ORIGINATOR     = 

OBJECT_NAME    = H-2A R/B
OBJECT_ID      = 2018-084L
CENTER_NAME    = EARTH
REF_FRAME      = TEME
TIME_SYSTEM    = UTC
MEAN_ELEMENT_THEORY = SGP/SGP4

EPOCH          = 2026-02-21T11:58:32.537280
MEAN_MOTION    = 15.40588250
ECCENTRICITY   = .0026296
INCLINATION    = 98.8745
RA_OF_ASC_NODE = 266.4356
ARG_OF_PERICENTER = 79.6869
MEAN_ANOMALY   = 280.7335

EPHEMERIS_TYPE = 0
CLASSIFICATION_TYPE = U
NORAD_CAT_ID   = 43682
ELEMENT_SET_NO = 999
REV_AT_EPOCH   = 40328
BSTAR          = .49303E-3
MEAN_MOTION_DOT = .20219E-3
MEAN_MOTION_DDOT = 0

CCSDS_OMM_VERS = 2.0
CREATION_DATE  = 
ORIGINATOR     = 

OBJECT_NAME    = SAOCOM 1B
OBJECT_ID      = 2020-059A
CENTER_NAME    = EARTH
REF_FRAME      = TEME
TIME_SYSTEM    = UTC
MEAN_ELEMENT_THEORY = SGP/SGP4

EPOCH          = 2026-02-21T12:31:17.091840
MEAN_MOTION    = 14.82151223
ECCENTRICITY   = .0001439
INCLINATION    = 97.8872
RA_OF_ASC_NODE = 240.0205
ARG_OF_PERICENTER = 84.4567
MEAN_ANOMALY   = 275.6810

EPHEMERIS_TYPE = 0
CLASSIFICATION_TYPE = U
NORAD_CAT_ID   = 46265
ELEMENT_SET_NO = 999
REV_AT_EPOCH   = 29635
BSTAR          = .12155E-4
MEAN_MOTION_DOT = .45E-6
MEAN_MOTION_DDOT = 0

CCSDS_OMM_VERS = 2.0
CREATION_DATE  = 
ORIGINATOR     = 

OBJECT_NAME    = CSS (TIANHE)
OBJECT_ID      = 2021-035A
CENTER_NAME    = EARTH
REF_FRAME      = TEME
TIME_SYSTEM    = UTC
MEAN_ELEMENT_THEORY = SGP/SGP4

EPOCH          = 2026-02-21T09:26:50.786304
MEAN_MOTION    = 15.59973204
ECCENTRICITY   = .0004925
INCLINATION    = 41.4672
RA_OF_ASC_NODE = 307.2629
ARG_OF_PERICENTER = 163.0648
MEAN_ANOMALY   = 197.0356

EPHEMERIS_TYPE = 0
CLASSIFICATION_TYPE = U
NORAD_CAT_ID   = 48274
ELEMENT_SET_NO = 999
REV_AT_EPOCH   = 27506
BSTAR          = .33751E-3
MEAN_MOTION_DOT = .27817E-3
MEAN_MOTION_DDOT = 0

CCSDS_OMM_VERS = 2.0
CREATION_DATE  = 
ORIGINATOR     = 

OBJECT_NAME    = COSMOS 2550
OBJECT_ID      = 2021-056A
CENTER_NAME    = EARTH
REF_FRAME      = TEME
TIME_SYSTEM    = UTC
MEAN_ELEMENT_THEORY = SGP/SGP4

EPOCH          = 2026-02-20T05:41:44.727072
MEAN_MOTION    = 15.33829214
ECCENTRICITY   = .00083763
INCLINATION    = 67.1417
RA_OF_ASC_NODE = 93.7235
ARG_OF_PERICENTER = 269.6268
MEAN_ANOMALY   = 90.3927

EPHEMERIS_TYPE = 0
CLASSIFICATION_TYPE = U
NORAD_CAT_ID   = 48865
ELEMENT_SET_NO = 999
REV_AT_EPOCH   = 26078
BSTAR          = .271694E-6
MEAN_MOTION_DOT = -.183E-5
MEAN_MOTION_DDOT = 0

CCSDS_OMM_VERS = 2.0
CREATION_DATE  = 
ORIGINATOR     = 

OBJECT_NAME    = CZ-2C R/B
OBJECT_ID      = 2022-058K
CENTER_NAME    = EARTH
REF_FRAME      = TEME
TIME_SYSTEM    = UTC
MEAN_ELEMENT_THEORY = SGP/SGP4

EPOCH          = 2026-02-21T08:50:30.421824
MEAN_MOTION    = 15.53012849
ECCENTRICITY   = .0042125
INCLINATION    = 50.1896
RA_OF_ASC_NODE = 42.1658
ARG_OF_PERICENTER = 131.4069
MEAN_ANOMALY   = 229.0534

EPHEMERIS_TYPE = 0
CLASSIFICATION_TYPE = U
NORAD_CAT_ID   = 52794
ELEMENT_SET_NO = 999
REV_AT_EPOCH   = 20759
BSTAR          = .55951E-3
MEAN_MOTION_DOT = .36665E-3
MEAN_MOTION_DDOT = 0

